{
  "norad_id": 61757,
  "name": "HORIZON (RS59S)",
  "history": [
    {
      "epoch": "2026-03-28T18:23:20.059296Z",
      "apogee_km": 344.87997440261915,
      "perigee_km": 337.1710792355998,
      "latitude_deg": -5.194433808601364e-06,
      "longitude_deg": -134.51662112026844,
      "height_km": 347.875124136036,
      "semi_major_axis_km": 6719.162526819109,
      "eccentricity": 0.00057365,
      "inclination_deg": 97.3021,
      "raan_deg": 327.4989,
      "arg_perigee_deg": 162.807,
      "mean_anomaly_deg": 197.3391,
      "mean_motion_rev_day": 15.76267941
    },
    {
      "epoch": "2026-03-29T05:03:12.585312Z",
      "apogee_km": 344.33381178353284,
      "perigee_km": 336.5536952709481,
      "latitude_deg": 1.4517372251997992e-05,
      "longitude_deg": 65.54483881248535,
      "height_km": 347.31098583513693,
      "semi_major_axis_km": 6718.58075352724,
      "eccentricity": 0.000579,
      "inclination_deg": 97.3023,
      "raan_deg": 327.9672,
      "arg_perigee_deg": 162.0033,
      "mean_anomaly_deg": 198.1439,
      "mean_motion_rev_day": 15.76472683
    },
    {
      "epoch": "2026-03-30T03:54:05.215968Z",
      "apogee_km": 343.1610508378253,
      "perigee_km": 335.2319103973041,
      "latitude_deg": -6.268413828087751e-06,
      "longitude_deg": 82.89061556417815,
      "height_km": 346.09684143589004,
      "semi_major_axis_km": 6717.333480617564,
      "eccentricity": 0.0005902,
      "inclination_deg": 97.3022,
      "raan_deg": 328.9706,
      "arg_perigee_deg": 160.3035,
      "mean_anomaly_deg": 199.846,
      "mean_motion_rev_day": 15.76911782
    },
    {
      "epoch": "2026-03-30T05:25:27.894720Z",
      "apogee_km": 343.0812058355177,
      "perigee_km": 335.12732045582743,
      "latitude_deg": 5.011588219624958e-05,
      "longitude_deg": 60.05056764874558,
      "height_km": 346.014822087595,
      "semi_major_axis_km": 6717.241263145672,
      "eccentricity": 0.00059205,
      "inclination_deg": 97.3021,
      "raan_deg": 329.0376,
      "arg_perigee_deg": 160.2408,
      "mean_anomaly_deg": 199.9089,
      "mean_motion_rev_day": 15.76944255
    },
    {
      "epoch": "2026-03-30T14:33:42.009408Z",
      "apogee_km": 342.63798759697056,
      "perigee_km": 334.59830035983396,
      "latitude_deg": -7.894839287849979e-06,
      "longitude_deg": -76.98198941058578,
      "height_km": 345.54312391501014,
      "semi_major_axis_km": 6716.755143978402,
      "eccentricity": 0.00059848,
      "inclination_deg": 97.3018,
      "raan_deg": 329.4391,
      "arg_perigee_deg": 159.173,
      "mean_anomaly_deg": 200.9781,
      "mean_motion_rev_day": 15.77115453
    },
    {
      "epoch": "2026-03-30T20:39:09.318528Z",
      "apogee_km": 342.31522565867635,
      "perigee_km": 334.2471954474322,
      "latitude_deg": 3.7509273105828645e-05,
      "longitude_deg": -168.32822806524032,
      "height_km": 345.19752972989164,
      "semi_major_axis_km": 6716.418210553054,
      "eccentricity": 0.00060062,
      "inclination_deg": 97.3015,
      "raan_deg": 329.7068,
      "arg_perigee_deg": 158.3149,
      "mean_anomaly_deg": 201.8373,
      "mean_motion_rev_day": 15.7723413
    },
    {
      "epoch": "2026-03-31T19:29:22.879968Z",
      "apogee_km": 341.25279527747625,
      "perigee_km": 332.94739004127405,
      "latitude_deg": -6.906666460562824e-05,
      "longitude_deg": -150.8189055736757,
      "height_km": 344.04326671750096,
      "semi_major_axis_km": 6715.237092659375,
      "eccentricity": 0.0006184,
      "inclination_deg": 97.3004,
      "raan_deg": 330.7105,
      "arg_perigee_deg": 155.3874,
      "mean_anomaly_deg": 204.7688,
      "mean_motion_rev_day": 15.77650269
    },
    {
      "epoch": "2026-04-01T18:19:15.060864Z",
      "apogee_km": 340.12071981068584,
      "perigee_km": 331.7549825461174,
      "latitude_deg": -4.4921890669246505e-05,
      "longitude_deg": -133.21977032409814,
      "height_km": 342.8458668871997,
      "semi_major_axis_km": 6714.074851178401,
      "eccentricity": 0.000623,
      "inclination_deg": 97.3,
      "raan_deg": 331.7147,
      "arg_perigee_deg": 153.3989,
      "mean_anomaly_deg": 206.7598,
      "mean_motion_rev_day": 15.78059936
    },
    {
      "epoch": "2026-04-02T21:42:33.542496Z",
      "apogee_km": 338.2805884997688,
      "perigee_km": 329.8287310056421,
      "latitude_deg": -3.8517803529328955e-05,
      "longitude_deg": 176.03391860709834,
      "height_km": 340.9368873221844,
      "semi_major_axis_km": 6712.191659752705,
      "eccentricity": 0.00062959,
      "inclination_deg": 97.3001,
      "raan_deg": 332.9202,
      "arg_perigee_deg": 151.5002,
      "mean_anomaly_deg": 208.661,
      "mean_motion_rev_day": 15.787241
    },
    {
      "epoch": "2026-04-03T20:31:25.432608Z",
      "apogee_km": 336.69678937640674,
      "perigee_km": 328.14753700250367,
      "latitude_deg": 6.273838998450909e-05,
      "longitude_deg": -166.1139577743953,
      "height_km": 339.30327946461296,
      "semi_major_axis_km": 6710.559163189455,
      "eccentricity": 0.000637,
      "inclination_deg": 97.2992,
      "raan_deg": 333.9255,
      "arg_perigee_deg": 150.277,
      "mean_anomaly_deg": 209.8861,
      "mean_motion_rev_day": 15.79300226
    },
    {
      "epoch": "2026-04-04T19:19:47.337600Z",
      "apogee_km": 335.1931106242955,
      "perigee_km": 326.5331332668884,
      "latitude_deg": 5.748384395217823e-05,
      "longitude_deg": -148.13664129866962,
      "height_km": 337.67916925759664,
      "semi_major_axis_km": 6709.000121945592,
      "eccentricity": 0.0006454,
      "inclination_deg": 97.298,
      "raan_deg": 334.9307,
      "arg_perigee_deg": 147.3805,
      "mean_anomaly_deg": 212.7863,
      "mean_motion_rev_day": 15.79850756
    },
    {
      "epoch": "2026-04-05T15:05:21.439968Z",
      "apogee_km": 334.11880808449587,
      "perigee_km": 325.3045607561944,
      "latitude_deg": -8.38996086559587e-07,
      "longitude_deg": -84.46882109853988,
      "height_km": 336.51447053293344,
      "semi_major_axis_km": 6707.848684420344,
      "eccentricity": 0.00065701,
      "inclination_deg": 97.2973,
      "raan_deg": 335.8021,
      "arg_perigee_deg": 145.5373,
      "mean_anomaly_deg": 214.6322,
      "mean_motion_rev_day": 15.80257558
    },
    {
      "epoch": "2026-04-05T19:38:54.338208Z",
      "apogee_km": 333.879900994486,
      "perigee_km": 325.0218604392112,
      "latitude_deg": -3.639981155824332e-05,
      "longitude_deg": -152.84213007164806,
      "height_km": 336.25896010866455,
      "semi_major_axis_km": 6707.587880716848,
      "eccentricity": 0.0006603,
      "inclination_deg": 97.2972,
      "raan_deg": 336.0031,
      "arg_perigee_deg": 145.2457,
      "mean_anomaly_deg": 214.9243,
      "mean_motion_rev_day": 15.80349724
    },
    {
      "epoch": "2026-04-06T06:17:07.525824Z",
      "apogee_km": 333.25474242202654,
      "perigee_km": 324.41200440290595,
      "latitude_deg": 5.251318669550779e-05,
      "longitude_deg": 47.635363306003406,
      "height_km": 335.57388850062256,
      "semi_major_axis_km": 6706.970373412466,
      "eccentricity": 0.00065922,
      "inclination_deg": 97.2974,
      "raan_deg": 336.4724,
      "arg_perigee_deg": 143.8759,
      "mean_anomaly_deg": 216.2956,
      "mean_motion_rev_day": 15.80567982
    },
    {
      "epoch": "2026-04-07T14:11:16.139328Z",
      "apogee_km": 331.48325655437566,
      "perigee_km": 322.60599839049974,
      "latitude_deg": 4.349134449549577e-06,
      "longitude_deg": -70.8019084361585,
      "height_km": 333.7189017506725,
      "semi_major_axis_km": 6705.181627472438,
      "eccentricity": 0.00066197,
      "inclination_deg": 97.2977,
      "raan_deg": 337.8812,
      "arg_perigee_deg": 142.1453,
      "mean_anomaly_deg": 218.0282,
      "mean_motion_rev_day": 15.81200498
    },
    {
      "epoch": "2026-04-07T20:15:46.764000Z",
      "apogee_km": 331.1176604942593,
      "perigee_km": 322.28470667120746,
      "latitude_deg": -5.478479952582419e-05,
      "longitude_deg": -161.91060295912047,
      "height_km": 333.35893713233276,
      "semi_major_axis_km": 6704.838183582733,
      "eccentricity": 0.0006587,
      "inclination_deg": 97.2977,
      "raan_deg": 338.1496,
      "arg_perigee_deg": 142.1613,
      "mean_anomaly_deg": 218.0119,
      "mean_motion_rev_day": 15.81321991
    },
    {
      "epoch": "2026-04-08T09:55:49.948320Z",
      "apogee_km": 330.3863717246222,
      "perigee_km": 321.5198103338307,
      "latitude_deg": 7.37019889181348e-05,
      "longitude_deg": -6.880995437521142,
      "height_km": 332.5978879564414,
      "semi_major_axis_km": 6704.090091029226,
      "eccentricity": 0.00066128,
      "inclination_deg": 97.2976,
      "raan_deg": 338.7538,
      "arg_perigee_deg": 141.608,
      "mean_anomaly_deg": 218.5661,
      "mean_motion_rev_day": 15.81586682
    },
    {
      "epoch": "2026-04-09T17:48:45.700704Z",
      "apogee_km": 328.7436261187431,
      "perigee_km": 319.73965065593256,
      "latitude_deg": -3.094377359351281e-05,
      "longitude_deg": -125.01284119758641,
      "height_km": 330.7557157178694,
      "semi_major_axis_km": 6702.378638387338,
      "eccentricity": 0.0006717,
      "inclination_deg": 97.2966,
      "raan_deg": 340.1636,
      "arg_perigee_deg": 137.9685,
      "mean_anomaly_deg": 222.21,
      "mean_motion_rev_day": 15.82192508
    },
    {
      "epoch": "2026-04-10T05:57:17.980128Z",
      "apogee_km": 328.07092856620966,
      "perigee_km": 318.93900315784686,
      "latitude_deg": -2.6561443485864696e-05,
      "longitude_deg": 52.89119276740866,
      "height_km": 330.00509017399105,
      "semi_major_axis_km": 6701.641965862028,
      "eccentricity": 0.00068132,
      "inclination_deg": 97.2963,
      "raan_deg": 340.7008,
      "arg_perigee_deg": 136.8287,
      "mean_anomaly_deg": 223.3517,
      "mean_motion_rev_day": 15.82453397
    }
  ]
}